NORAD_CAT_ID,OBJECT_NAME,OBJECT_TYPE,EPOCH,MEAN_MOTION,ECCENTRICITY,INCLINATION,RA_OF_ASC_NODE,ARG_OF_PERICENTER,MEAN_ANOMALY,BSTAR,MEAN_MOTION_DOT,MEAN_MOTION_DDOT,TLE_LINE0,TLE_LINE1,TLE_LINE2,SEMIMAJOR_AXIS,PERIOD,APOGEE,PERIGEE,DECAYED
55662.0,STARLINK-5479,PAYLOAD,2023-09-21 09:21:01,14.98330706,0.0003014,69.9991,274.6255,253.625,106.4578,-2.3329e-06,-1.21e-06,0.0,0 STARLINK-5479,1 55662U 23021AL  23264.38959950 -.00000121  00000-0 -23329-5 0  9997,2 55662  69.9991 274.6255 0003014 253.6250 106.4578 14.98330706 34123,6950.191,96.107,574.15,569.961,0.0
55662.0,STARLINK-5479,PAYLOAD,2023-09-21 10:57:09,14.98330271,0.0003169,69.9991,274.4573,261.2592,98.8209,1.8681e-05,1.3e-06,0.0,0 STARLINK-5479,1 55662U 23021AL  23264.45635946  .00000130  00000-0  18681-4 0  9993,2 55662  69.9991 274.4573 0003169 261.2592  98.8209 14.98330271 34435,6950.192,96.107,574.26,569.855,0.0
55662.0,STARLINK-5479,PAYLOAD,2023-09-22 04:34:49,14.97764978,0.00044,69.9987,272.606,216.6198,143.4661,0.0098576,0.00117803,0.0,0 STARLINK-5479,1 55662U 23021AL  23265.19085321  .00117803  00000-0  98576-2 0  9996,2 55662  69.9987 272.6060 0004400 216.6198 143.4661 14.97764978 34248,6951.941,96.143,576.865,570.747,0.0
55662.0,STARLINK-5479,PAYLOAD,2023-09-22 10:59:11,14.98301814,0.0003067,69.9996,271.9328,267.6431,92.4377,-0.00029006,-3.55e-05,0.0,0 STARLINK-5479,1 55662U 23021AL  23265.45777738 -.00003550  00000-0 -29006-3 0  9993,2 55662  69.9996 271.9328 0003067 267.6431  92.4377 14.98301814 34289,6950.28,96.109,574.277,570.013,0.0
55662.0,STARLINK-5479,PAYLOAD,2023-09-23 03:00:30,14.98329732,0.0003116,69.999,270.2491,268.3263,91.7539,4.7555e-06,-3.6e-07,0.0,0 STARLINK-5479,1 55662U 23021AL  23266.12535333 -.00000036  00000-0  47555-5 0  9997,2 55662  69.9990 270.2491 0003116 268.3263  91.7539 14.98329732 34384,6950.194,96.107,574.224,569.893,0.0
55662.0,STARLINK-5479,PAYLOAD,2023-09-23 09:25:02,14.98348858,0.0003049,69.999,269.5762,269.4965,90.5844,-0.00028966,-3.549e-05,0.0,0 STARLINK-5479,1 55662U 23021AL  23266.39238831 -.00003549  00000-0 -28966-3 0  9995,2 55662  69.9990 269.5762 0003049 269.4965  90.5844 14.98348858 34423,6950.135,96.106,574.119,569.88,0.0
55662.0,STARLINK-5479,PAYLOAD,2023-09-23 17:25:43,14.98322662,0.0002992,69.9992,268.7348,260.2472,99.8349,0.00011533,1.283e-05,0.0,0 STARLINK-5479,1 55662U 23021AL  23266.72619480  .00001283  00000-0  11533-3 0  9998,2 55662  69.9992 268.7348 0002992 260.2472  99.8349 14.98322662 34476,6950.216,96.107,574.16,570.001,0.0
55662.0,STARLINK-5479,PAYLOAD,2023-09-24 11:03:11,14.98331456,0.000307,69.9992,266.8831,266.1828,93.898,-3.4382e-05,-5.03e-06,0.0,0 STARLINK-5479,1 55662U 23021AL  23267.46055239 -.00000503  00000-0 -34382-4 0  9990,2 55662  69.9992 266.8831 0003070 266.1828  93.8980 14.98331456 34881,6950.188,96.107,574.187,569.92,0.0
55662.0,STARLINK-5479,PAYLOAD,2023-09-25 09:29:04,14.98331563,0.0003008,69.9992,264.5262,266.8468,93.2347,4.4218e-05,4.35e-06,0.0,0 STARLINK-5479,1 55662U 23021AL  23268.39518996  .00000435  00000-0  44218-4 0  9998,2 55662  69.9992 264.5262 0003008 266.8468  93.2347 14.98331563 35029,6950.188,96.107,574.144,569.962,0.0
55662.0,STARLINK-5479,PAYLOAD,2023-09-25 17:29:44,14.98332054,0.0003029,69.9992,263.6835,269.557,90.5242,4.0333e-05,3.88e-06,0.0,0 STARLINK-5479,1 55662U 23021AL  23268.72898946  .00000388  00000-0  40333-4 0  9992,2 55662  69.9992 263.6835 0003029 269.5570  90.5242 14.98332054 34773,6950.187,96.107,574.157,569.946,0.0
55662.0,STARLINK-5479,PAYLOAD,2023-09-26 09:31:04,14.9833506,0.0003053,69.9991,262.0003,270.0693,90.0116,8.4109e-05,9.11e-06,0.0,0 STARLINK-5479,1 55662U 23021AL  23269.39658502  .00000911  00000-0  84109-4 0  9999,2 55662  69.9991 262.0003 0003053 270.0693  90.0116 14.98335060 35172,6950.177,96.107,574.164,569.92,0.0
55662.0,STARLINK-5479,PAYLOAD,2023-09-27 01:32:26,14.98328641,0.0002903,69.9994,260.3172,271.8311,88.2515,-2.5476e-05,-3.97e-06,0.0,0 STARLINK-5479,1 55662U 23021AL  23270.06419178 -.00000397  00000-0 -25476-4 0  9991,2 55662  69.9994 260.3172 0002903 271.8311  88.2515 14.98328641 34978,6950.197,96.107,574.08,570.044,0.0
55662.0,STARLINK-5479,PAYLOAD,2023-09-27 09:33:06,14.98331196,0.0002896,69.9993,259.4754,271.4379,88.6448,3.5288e-06,-5.1e-07,0.0,0 STARLINK-5479,1 55662U 23021AL  23270.39798917 -.00000051  00000-0  35288-5 0  9997,2 55662  69.9993 259.4754 0002896 271.4379  88.6448 14.98331196 35321,6950.189,96.107,574.067,570.041,0.0
55662.0,STARLINK-5479,PAYLOAD,2023-09-28 01:34:27,14.98329031,0.0002822,69.9997,257.7922,271.9179,88.1657,-7.4523e-05,-9.82e-06,0.0,0 STARLINK-5479,1 55662U 23021AL  23271.06559287 -.00000982  00000-0 -74523-4 0  9995,2 55662  69.9997 257.7922 0002822 271.9179  88.1657 14.98329031 35125,6950.196,96.107,574.022,570.1,0.0
55662.0,STARLINK-5479,PAYLOAD,2023-09-28 09:35:07,14.98327967,0.0002719,70.0,256.9515,268.1841,91.9007,-4.8412e-05,-6.71e-06,0.0,0 STARLINK-5479,1 55662U 23021AL  23271.39939305 -.00000671  00000-0 -48412-4 0  9997,2 55662  70.0000 256.9515 0002719 268.1841  91.9007 14.98327967 35476,6950.199,96.107,573.954,570.174,0.0
55662.0,STARLINK-5479,PAYLOAD,2023-09-29 08:01:00,14.98331844,0.0002791,70.0,254.5947,269.2013,90.8827,5.065e-05,5.11e-06,0.0,0 STARLINK-5479,1 55662U 23021AL  23272.33402801  .00000511  00000-0  50650-4 0  9996,2 55662  70.0000 254.5947 0002791 269.2013  90.8827 14.98331844 35312,6950.187,96.107,573.992,570.112,0.0
55662.0,STARLINK-5479,PAYLOAD,2023-09-30 04:50:45,14.98328657,0.0002878,70.0,252.4061,267.4021,92.6809,4.2904e-05,4.19e-06,0.0,0 STARLINK-5479,1 55662U 23021AL  23273.20190986  .00000419  00000-0  42904-4 0  9991,2 55662  70.0000 252.4061 0002878 267.4021  92.6809 14.98328657 35746,6950.197,96.107,574.062,570.062,0.0
55662.0,STARLINK-5479,PAYLOAD,2023-09-30 09:39:09,14.98329942,0.0002838,70.0001,251.9012,265.9516,94.1319,5.5641e-05,5.71e-06,0.0,0 STARLINK-5479,1 55662U 23021AL  23273.40218861  .00000571  00000-0  55641-4 0  9997,2 55662  70.0001 251.9012 0002838 265.9516  94.1319 14.98329942 35476,6950.193,96.107,574.031,570.086,0.0
55662.0,STARLINK-5479,PAYLOAD,2023-10-01 08:05:02,14.98330668,0.0002705,70.0004,249.5449,268.691,91.394,-8.741e-06,-1.97e-06,0.0,0 STARLINK-5479,1 55662U 23021AL  23274.33683049 -.00000197  00000-0 -87410-5 0  9990,2 55662  70.0004 249.5449 0002705 268.6910  91.3940 14.98330668 35912,6950.191,96.107,573.936,570.176,0.0
55662.0,STARLINK-5479,PAYLOAD,2023-10-01 16:05:42,14.98329772,0.0002715,70.0007,248.7036,269.515,90.5698,-9.8588e-06,-2.11e-06,0.0,0 STARLINK-5479,1 55662U 23021AL  23274.67063080 -.00000211  00000-0 -98588-5 0  9999,2 55662  70.0007 248.7036 0002715 269.5150  90.5698 14.98329772 35662,6950.194,96.107,573.946,570.172,0.0
55662.0,STARLINK-5479,PAYLOAD,2023-10-02 08:07:03,14.98330682,0.0002881,70.0002,247.0195,269.1863,90.8966,9.2833e-06,1.8e-07,0.0,0 STARLINK-5479,1 55662U 23021AL  23275.33823021  .00000018  00000-0  92833-5 0  9992,2 55662  70.0002 247.0195 0002881 269.1863  90.8966 14.98330682 36064,6950.191,96.107,574.058,570.053,0.0
55662.0,STARLINK-5479,PAYLOAD,2023-10-03 04:56:47,14.98332167,0.000296,70.0002,244.8316,271.9472,88.1348,0.00013599,1.53e-05,0.0,0 STARLINK-5479,1 55662U 23021AL  23276.20610560  .00001530  00000-0  13599-3 0  9991,2 55662  70.0002 244.8316 0002960 271.9472  88.1348 14.98332167 35893,6950.186,96.107,574.108,569.994,0.0
55662.0,STARLINK-5479,PAYLOAD,2023-10-03 08:09:03,14.98322381,0.0002799,70.0003,244.4949,270.525,89.5588,0.00033601,3.918e-05,0.0,0 STARLINK-5479,1 55662U 23021AL  23276.33962684  .00003918  00000-0  33601-3 0  9990,2 55662  70.0003 244.4949 0002799 270.5250  89.5588 14.98322381 36216,6950.216,96.107,574.027,570.136,0.0
55662.0,STARLINK-5479,PAYLOAD,2023-10-04 08:11:04,14.98334832,0.0002852,70.0007,241.9704,271.9094,88.1738,6.0431e-05,6.28e-06,0.0,0 STARLINK-5479,1 55662U 23021AL  23277.34102491  .00000628  00000-0  60431-4 0  9991,2 55662  70.0007 241.9704 0002852 271.9094  88.1738 14.98334832 36061,6950.178,96.107,574.025,570.061,0.0
55662.0,STARLINK-5479,PAYLOAD,2023-10-04 14:35:37,14.9833007,0.0002808,70.001,241.2977,269.8189,90.2648,6.0395e-08,-9.2e-07,0.0,0 STARLINK-5479,1 55662U 23021AL  23277.60806899 -.00000092  00000-0  60395-7 0  9991,2 55662  70.0010 241.2977 0002808 269.8189  90.2648 14.98330070 36404,6950.193,96.107,574.009,570.106,0.0
55662.0,STARLINK-5479,PAYLOAD,2023-10-05 08:13:05,14.98332728,0.0002645,70.0015,239.4454,264.9636,95.1221,4.3093e-05,4.21e-06,0.0,0 STARLINK-5479,1 55662U 23021AL  23278.34242538  .00000421  00000-0  43093-4 0  9995,2 55662  70.0015 239.4454 0002645 264.9636  95.1221 14.98332728 36212,6950.184,96.107,573.888,570.211,0.0
55662.0,STARLINK-5479,PAYLOAD,2023-10-05 14:37:37,14.98354281,0.0002722,70.0016,238.7712,275.9954,84.0895,-0.00053052,-6.421e-05,0.0,0 STARLINK-5479,1 55662U 23021AL  23278.60946448 -.00006421  00000-0 -53052-3 0  9998,2 55662  70.0016 238.7712 0002722 275.9954  84.0895 14.98354281 36552,6950.118,96.105,573.875,570.091,0.0
55662.0,STARLINK-5479,PAYLOAD,2023-10-06 00:14:26,14.983282,0.0003299,70.0008,237.7597,272.2464,87.8317,-0.0001093,-1.397e-05,0.0,0 STARLINK-5479,1 55662U 23021AL  23279.01003105 -.00001397  00000-0 -10930-3 0  9993,2 55662  70.0008 237.7597 0003299 272.2464  87.8317 14.98328200 36315,6950.198,96.107,574.356,569.771,0.0
55662.0,STARLINK-5479,PAYLOAD,2023-10-06 06:38:58,14.98335988,0.0003071,70.0006,237.0879,272.0465,88.0342,1.4676e-05,8.2e-07,0.0,0 STARLINK-5479,1 55662U 23021AL  23279.27706294  .00000082  00000-0  14676-4 0  9990,2 55662  70.0006 237.0879 0003071 272.0465  88.0342 14.98335988 36352,6950.174,96.107,574.174,569.905,0.0
55662.0,STARLINK-5479,PAYLOAD,2023-10-06 14:39:38,14.98329806,0.0002997,70.0003,236.247,271.0867,88.9949,7.8961e-06,1e-08,0.0,0 STARLINK-5479,1 55662U 23021AL  23279.61086685  .00000001  00000-0  78961-5 0  9992,2 55662  70.0003 236.2470 0002997 271.0867  88.9949 14.98329806 36408,6950.193,96.107,574.141,569.976,0.0
